{
  "norad_id": 67348,
  "name": "STARLINK-36467",
  "history": [
    {
      "epoch": "2026-03-28T19:02:28.414752Z",
      "apogee_km": 483.82894021620086,
      "perigee_km": 482.18679380373123,
      "latitude_deg": -5.054700259632027e-05,
      "longitude_deg": 7.514620042440802,
      "height_km": 482.74215621808054,
      "semi_major_axis_km": 6861.144867009966,
      "eccentricity": 0.00011967,
      "inclination_deg": 43.0056,
      "raan_deg": 119.3418,
      "arg_perigee_deg": 272.9932,
      "mean_anomaly_deg": 87.0782,
      "mean_motion_rev_day": 15.27593769
    },
    {
      "epoch": "2026-03-29T02:53:15.343872Z",
      "apogee_km": 483.5548106693341,
      "perigee_km": 482.41723647202616,
      "latitude_deg": 1.8827139369811632e-05,
      "longitude_deg": -112.34768293511695,
      "height_km": 482.72873691367414,
      "semi_major_axis_km": 6861.12302357068,
      "eccentricity": 8.29e-05,
      "inclination_deg": 42.9977,
      "raan_deg": 117.4972,
      "arg_perigee_deg": 273.3499,
      "mean_anomaly_deg": 86.7258,
      "mean_motion_rev_day": 15.27601064
    },
    {
      "epoch": "2026-03-30T02:25:36.091488Z",
      "apogee_km": 483.3962635398766,
      "perigee_km": 482.60640929458896,
      "latitude_deg": -3.105273056241248e-05,
      "longitude_deg": -111.94100031143081,
      "height_km": 483.1705901706353,
      "semi_major_axis_km": 6861.1383364172325,
      "eccentricity": 5.756e-05,
      "inclination_deg": 43.0004,
      "raan_deg": 111.9571,
      "arg_perigee_deg": 175.8605,
      "mean_anomaly_deg": 184.2251,
      "mean_motion_rev_day": 15.2759595
    },
    {
      "epoch": "2026-03-30T10:16:23.045664Z",
      "apogee_km": 484.02686889227516,
      "perigee_km": 482.0101008490519,
      "latitude_deg": -2.1529544495373123e-05,
      "longitude_deg": 128.19342860432297,
      "height_km": 482.6013730399539,
      "semi_major_axis_km": 6861.155484870663,
      "eccentricity": 0.00014697,
      "inclination_deg": 43.0013,
      "raan_deg": 110.1094,
      "arg_perigee_deg": 281.0934,
      "mean_anomaly_deg": 78.9752,
      "mean_motion_rev_day": 15.27590223
    },
    {
      "epoch": "2026-03-30T18:07:10.594272Z",
      "apogee_km": 483.5032944149898,
      "perigee_km": 482.6338424453588,
      "latitude_deg": 8.051059719383953e-06,
      "longitude_deg": 8.326495325871768,
      "height_km": 482.59796043597436,
      "semi_major_axis_km": 6861.205568430174,
      "eccentricity": 6.336e-05,
      "inclination_deg": 43.0048,
      "raan_deg": 108.2628,
      "arg_perigee_deg": 304.6388,
      "mean_anomaly_deg": 55.4404,
      "mean_motion_rev_day": 15.27573497
    },
    {
      "epoch": "2026-03-31T08:14:35.858112Z",
      "apogee_km": 484.13724539556097,
      "perigee_km": 482.10631279694826,
      "latitude_deg": -1.6496953763053008e-06,
      "longitude_deg": 152.56748063989664,
      "height_km": 482.8822603043112,
      "semi_major_axis_km": 6861.258779096254,
      "eccentricity": 0.000148,
      "inclination_deg": 43.0009,
      "raan_deg": 104.9391,
      "arg_perigee_deg": 270.9249,
      "mean_anomaly_deg": 89.1433,
      "mean_motion_rev_day": 15.27555727
    },
    {
      "epoch": "2026-04-01T17:11:53.157408Z",
      "apogee_km": 484.17738917572933,
      "perigee_km": 481.7718834360403,
      "latitude_deg": -2.3736569597621637e-05,
      "longitude_deg": 9.136372726485098,
      "height_km": 482.6568781966552,
      "semi_major_axis_km": 6861.1116363058845,
      "eccentricity": 0.0001753,
      "inclination_deg": 43.0008,
      "raan_deg": 97.1835,
      "arg_perigee_deg": 274.5227,
      "mean_anomaly_deg": 85.5424,
      "mean_motion_rev_day": 15.27604867
    },
    {
      "epoch": "2026-04-02T01:02:39.867072Z",
      "apogee_km": 483.27074353937496,
      "perigee_km": 482.59300715586687,
      "latitude_deg": 2.1305447596243432e-05,
      "longitude_deg": -110.72613888899137,
      "height_km": 482.7891722452531,
      "semi_major_axis_km": 6861.068875347621,
      "eccentricity": 4.939e-05,
      "inclination_deg": 43.0001,
      "raan_deg": 95.3378,
      "arg_perigee_deg": 256.0971,
      "mean_anomaly_deg": 103.9826,
      "mean_motion_rev_day": 15.27619148
    },
    {
      "epoch": "2026-04-03T16:16:33.413664Z",
      "apogee_km": 483.591899093517,
      "perigee_km": 482.54350701489057,
      "latitude_deg": -3.2033765433002167e-06,
      "longitude_deg": 9.957242664172082,
      "height_km": 482.84779209870607,
      "semi_major_axis_km": 6861.2047030542035,
      "eccentricity": 7.64e-05,
      "inclination_deg": 42.9999,
      "raan_deg": 86.1055,
      "arg_perigee_deg": 269.568,
      "mean_anomaly_deg": 90.5084,
      "mean_motion_rev_day": 15.27573786
    },
    {
      "epoch": "2026-04-04T07:58:07.738464Z",
      "apogee_km": 484.07691400407657,
      "perigee_km": 482.0520362247398,
      "latitude_deg": -1.5236765576980706e-05,
      "longitude_deg": 130.22682630457837,
      "height_km": 483.0770044928359,
      "semi_major_axis_km": 6861.201475114408,
      "eccentricity": 0.00014756,
      "inclination_deg": 43.002,
      "raan_deg": 82.4126,
      "arg_perigee_deg": 256.5432,
      "mean_anomaly_deg": 103.5255,
      "mean_motion_rev_day": 15.27574864
    },
    {
      "epoch": "2026-04-05T07:30:28.780704Z",
      "apogee_km": 484.0509852721443,
      "perigee_km": 481.9405008403801,
      "latitude_deg": -3.984889744174875e-06,
      "longitude_deg": 130.63324140195488,
      "height_km": 482.91664330501743,
      "semi_major_axis_km": 6861.1327430562615,
      "eccentricity": 0.0001538,
      "inclination_deg": 43.0014,
      "raan_deg": 76.8734,
      "arg_perigee_deg": 262.1589,
      "mean_anomaly_deg": 97.9088,
      "mean_motion_rev_day": 15.27597818
    },
    {
      "epoch": "2026-04-05T15:21:15.657984Z",
      "apogee_km": 483.8745510994877,
      "perigee_km": 482.1592626227721,
      "latitude_deg": 4.223703534341213e-06,
      "longitude_deg": 10.768589228726063,
      "height_km": 482.86920149303495,
      "semi_major_axis_km": 6861.15390686113,
      "eccentricity": 0.000125,
      "inclination_deg": 43.0003,
      "raan_deg": 75.0263,
      "arg_perigee_deg": 264.9361,
      "mean_anomaly_deg": 95.1348,
      "mean_motion_rev_day": 15.2759075
    },
    {
      "epoch": "2026-04-05T23:12:02.307168Z",
      "apogee_km": 483.7001336897674,
      "perigee_km": 482.250929500844,
      "latitude_deg": 1.4889589678032294e-05,
      "longitude_deg": -109.09250732177503,
      "height_km": 482.9610341586061,
      "semi_major_axis_km": 6861.112531595305,
      "eccentricity": 0.00010561,
      "inclination_deg": 43.0005,
      "raan_deg": 73.1818,
      "arg_perigee_deg": 253.2266,
      "mean_anomaly_deg": 106.847,
      "mean_motion_rev_day": 15.27604568
    },
    {
      "epoch": "2026-04-07T05:01:00.490080Z",
      "apogee_km": 484.055061819673,
      "perigee_km": 481.9495153947846,
      "latitude_deg": 1.4588513618437522e-05,
      "longitude_deg": 155.42355414405162,
      "height_km": 482.77041958057293,
      "semi_major_axis_km": 6861.139288607228,
      "eccentricity": 0.00015344,
      "inclination_deg": 43.0007,
      "raan_deg": 66.1648,
      "arg_perigee_deg": 270.4766,
      "mean_anomaly_deg": 89.591,
      "mean_motion_rev_day": 15.27595632
    },
    {
      "epoch": "2026-04-08T06:07:31.160064Z",
      "apogee_km": 483.9776985420458,
      "perigee_km": 482.07015858068644,
      "latitude_deg": 3.9726409619686015e-05,
      "longitude_deg": 131.85891599081424,
      "height_km": 482.91123493787546,
      "semi_major_axis_km": 6861.160928561366,
      "eccentricity": 0.00013901,
      "inclination_deg": 43.0014,
      "raan_deg": 60.2591,
      "arg_perigee_deg": 263.3479,
      "mean_anomaly_deg": 96.7215,
      "mean_motion_rev_day": 15.27588405
    },
    {
      "epoch": "2026-04-09T21:21:26.051040Z",
      "apogee_km": 483.0792509456187,
      "perigee_km": 482.9530057280572,
      "latitude_deg": -1.8328709243484077e-05,
      "longitude_deg": -107.4626606722873,
      "height_km": 482.73371170190035,
      "semi_major_axis_km": 6861.153128336838,
      "eccentricity": 9.2e-06,
      "inclination_deg": 42.9981,
      "raan_deg": 51.0275,
      "arg_perigee_deg": 335.9893,
      "mean_anomaly_deg": 24.0954,
      "mean_motion_rev_day": 15.2759101
    },
    {
      "epoch": "2026-04-10T06:46:22.001376Z",
      "apogee_km": 483.7621962884623,
      "perigee_km": 482.25823281903104,
      "latitude_deg": -1.084783863448067e-05,
      "longitude_deg": 108.70073735376668,
      "height_km": 482.82124241618664,
      "semi_major_axis_km": 6861.147214553746,
      "eccentricity": 0.0001096,
      "inclination_deg": 43.0007,
      "raan_deg": 48.8107,
      "arg_perigee_deg": 267.3695,
      "mean_anomaly_deg": 92.7031,
      "mean_motion_rev_day": 15.27592985
    },
    {
      "epoch": "2026-04-11T20:26:07.344096Z",
      "apogee_km": 484.14260854955955,
      "perigee_km": 482.0046553166494,
      "latitude_deg": 1.012576810386562e-06,
      "longitude_deg": -106.64962885912861,
      "height_km": 482.65579332796085,
      "semi_major_axis_km": 6861.210631933104,
      "eccentricity": 0.0001558,
      "inclination_deg": 42.9989,
      "raan_deg": 39.946,
      "arg_perigee_deg": 280.4863,
      "mean_anomaly_deg": 79.5813,
      "mean_motion_rev_day": 15.27571806
    },
    {
      "epoch": "2026-04-13T05:23:24.770400Z",
      "apogee_km": 483.9285625436369,
      "perigee_km": 482.17868448701574,
      "latitude_deg": -3.6126561757295926e-05,
      "longitude_deg": 109.92251411191283,
      "height_km": 482.85273727970434,
      "semi_major_axis_km": 6861.1906235153265,
      "eccentricity": 0.00012752,
      "inclination_deg": 43.0004,
      "raan_deg": 32.1942,
      "arg_perigee_deg": 268.5283,
      "mean_anomaly_deg": 91.5422,
      "mean_motion_rev_day": 15.27578488
    }
  ]
}